EARTHCARE               
1 59908U 24101A   24219.87115226  .00019775  00000+0  28721-3 0  9990
2 59908  96.9856 346.4309 0002295 268.9416  91.1576 15.55830899 10866
